{"fetched_at":"2026-07-07T07:58:34.578Z","source":"https://celestrak.org/NORAD/elements/gp.php?NAME=HAWK&FORMAT=JSON","constellation":"hawkeye-360","records":[{"OBJECT_NAME":"HAWK-12A","OBJECT_ID":"2025-138C","EPOCH":"2026-07-06T13:12:37.152000","CLASSIFICATION_TYPE":"U","MEAN_MOTION":15.18360733,"ECCENTRICITY":0.0015613,"INCLINATION":97.4412,"RA_OF_ASC_NODE":190.0052,"ARG_OF_PERICENTER":73.7181,"MEAN_ANOMALY":286.5769,"EPHEMERIS_TYPE":0,"NORAD_CAT_ID":64623,"ELEMENT_SET_NO":999,"REV_AT_EPOCH":5680,"BSTAR":0.00020728,"MEAN_MOTION_DOT":0.00004203,"MEAN_MOTION_DDOT":0},{"OBJECT_NAME":"HAWK-13A","OBJECT_ID":"2026-004AF","EPOCH":"2026-07-06T13:24:52.613856","CLASSIFICATION_TYPE":"U","MEAN_MOTION":15.19310549,"ECCENTRICITY":0.0003644,"INCLINATION":97.4445,"RA_OF_ASC_NODE":186.1534,"ARG_OF_PERICENTER":261.4751,"MEAN_ANOMALY":98.6071,"EPHEMERIS_TYPE":0,"NORAD_CAT_ID":67392,"ELEMENT_SET_NO":999,"REV_AT_EPOCH":2670,"BSTAR":0.00018773,"MEAN_MOTION_DOT":0.00003896,"MEAN_MOTION_DDOT":0},{"OBJECT_NAME":"HAWK-13C","OBJECT_ID":"2026-004AG","EPOCH":"2026-07-06T13:24:39.773088","CLASSIFICATION_TYPE":"U","MEAN_MOTION":15.193107,"ECCENTRICITY":0.000352,"INCLINATION":97.4589,"RA_OF_ASC_NODE":186.5609,"ARG_OF_PERICENTER":265.7972,"MEAN_ANOMALY":94.286,"EPHEMERIS_TYPE":0,"NORAD_CAT_ID":67393,"ELEMENT_SET_NO":999,"REV_AT_EPOCH":2670,"BSTAR":0.00018748,"MEAN_MOTION_DOT":0.0000389,"MEAN_MOTION_DDOT":0},{"OBJECT_NAME":"HAWK-13B","OBJECT_ID":"2026-004AK","EPOCH":"2026-07-06T13:24:31.700736","CLASSIFICATION_TYPE":"U","MEAN_MOTION":15.19309995,"ECCENTRICITY":0.0004802,"INCLINATION":97.4529,"RA_OF_ASC_NODE":186.3909,"ARG_OF_PERICENTER":264.4048,"MEAN_ANOMALY":95.6639,"EPHEMERIS_TYPE":0,"NORAD_CAT_ID":67396,"ELEMENT_SET_NO":999,"REV_AT_EPOCH":2670,"BSTAR":0.00018541,"MEAN_MOTION_DOT":0.00003847,"MEAN_MOTION_DDOT":0},{"OBJECT_NAME":"HAWK-14B","OBJECT_ID":"2026-067W","EPOCH":"2026-07-06T20:31:17.933088","CLASSIFICATION_TYPE":"U","MEAN_MOTION":15.18386802,"ECCENTRICITY":0.0002468,"INCLINATION":97.4555,"RA_OF_ASC_NODE":146.0231,"ARG_OF_PERICENTER":24.3212,"MEAN_ANOMALY":335.8138,"EPHEMERIS_TYPE":0,"NORAD_CAT_ID":68436,"ELEMENT_SET_NO":999,"REV_AT_EPOCH":1492,"BSTAR":0.00015389,"MEAN_MOTION_DOT":0.00003096,"MEAN_MOTION_DDOT":0},{"OBJECT_NAME":"HAWK-14C","OBJECT_ID":"2026-067AB","EPOCH":"2026-07-06T20:31:27.056928","CLASSIFICATION_TYPE":"U","MEAN_MOTION":15.18389144,"ECCENTRICITY":0.0003462,"INCLINATION":97.4493,"RA_OF_ASC_NODE":145.91,"ARG_OF_PERICENTER":43.9134,"MEAN_ANOMALY":316.2375,"EPHEMERIS_TYPE":0,"NORAD_CAT_ID":68441,"ELEMENT_SET_NO":999,"REV_AT_EPOCH":1492,"BSTAR":0.00015642,"MEAN_MOTION_DOT":0.00003148,"MEAN_MOTION_DDOT":0},{"OBJECT_NAME":"HAWK-14A","OBJECT_ID":"2026-067AJ","EPOCH":"2026-07-06T11:02:14.330112","CLASSIFICATION_TYPE":"U","MEAN_MOTION":15.18381932,"ECCENTRICITY":0.0004201,"INCLINATION":97.4618,"RA_OF_ASC_NODE":145.7529,"ARG_OF_PERICENTER":38.5646,"MEAN_ANOMALY":321.5888,"EPHEMERIS_TYPE":0,"NORAD_CAT_ID":68448,"ELEMENT_SET_NO":999,"REV_AT_EPOCH":1486,"BSTAR":0.00017518,"MEAN_MOTION_DOT":0.00003533,"MEAN_MOTION_DDOT":0}]}
