HAWK-12A                
1 64623U 25138C   26187.55043000  .00004203  00000+0  20728-3 0  9991
2 64623  97.4412 190.0052 0015613  73.7181 286.5769 15.18360733 56809
HAWK-13A                
1 67392U 26004AF  26187.55894229  .00003896  00000+0  18773-3 0  9991
2 67392  97.4445 186.1534 0003644 261.4751  98.6071 15.19310549 26707
HAWK-13C                
1 67393U 26004AG  26187.55879367  .00003890  00000+0  18748-3 0  9994
2 67393  97.4589 186.5609 0003520 265.7972  94.2860 15.19310700 26706
HAWK-13B                
1 67396U 26004AK  26187.55870024  .00003847  00000+0  18541-3 0  9991
2 67396  97.4529 186.3909 0004802 264.4048  95.6639 15.19309995 26701
HAWK-14B                
1 68436U 26067W   26187.85506867  .00003096  00000+0  15389-3 0  9993
2 68436  97.4555 146.0231 0002468  24.3212 335.8138 15.18386802 14924
HAWK-14C                
1 68441U 26067AB  26187.85517427  .00003148  00000+0  15642-3 0  9993
2 68441  97.4493 145.9100 0003462  43.9134 316.2375 15.18389144 14927
HAWK-14A                
1 68448U 26067AJ  26187.45988808  .00003533  00000+0  17518-3 0  9993
2 68448  97.4618 145.7529 0004201  38.5646 321.5888 15.18381932 14864
